CCSDS_OMM_VERS = 2.0
CREATION_DATE  = 
ORIGINATOR     = 

OBJECT_NAME    = ALOS (DAICHI)
OBJECT_ID      = 2006-002A
CENTER_NAME    = EARTH
REF_FRAME      = TEME
TIME_SYSTEM    = UTC
MEAN_ELEMENT_THEORY = SGP/SGP4

EPOCH          = 2026-01-26T10:18:14.505984
MEAN_MOTION    = 14.69657066
ECCENTRICITY   = .0002173
INCLINATION    = 98.1151
RA_OF_ASC_NODE = 342.6214
ARG_OF_PERICENTER = 79.4465
MEAN_ANOMALY   = 280.6985

EPHEMERIS_TYPE = 0
CLASSIFICATION_TYPE = U
NORAD_CAT_ID   = 28931
ELEMENT_SET_NO = 999
REV_AT_EPOCH   = 6727
BSTAR          = .41651E-3
MEAN_MOTION_DOT = .2429E-4
MEAN_MOTION_DDOT = 0

CCSDS_OMM_VERS = 2.0
CREATION_DATE  = 
ORIGINATOR     = 

OBJECT_NAME    = H-2A R/B
OBJECT_ID      = 2006-002B
CENTER_NAME    = EARTH
REF_FRAME      = TEME
TIME_SYSTEM    = UTC
MEAN_ELEMENT_THEORY = SGP/SGP4

EPOCH          = 2026-01-26T08:46:53.166432
MEAN_MOTION    = 15.15553830
ECCENTRICITY   = .0053791
INCLINATION    = 98.2339
RA_OF_ASC_NODE = 169.8009
ARG_OF_PERICENTER = 26.4084
MEAN_ANOMALY   = 333.9869

EPHEMERIS_TYPE = 0
CLASSIFICATION_TYPE = U
NORAD_CAT_ID   = 28932
ELEMENT_SET_NO = 999
REV_AT_EPOCH   = 8802
BSTAR          = .5578E-3
MEAN_MOTION_DOT = .109E-3
MEAN_MOTION_DDOT = 0

CCSDS_OMM_VERS = 2.0
CREATION_DATE  = 
ORIGINATOR     = 

OBJECT_NAME    = RESURS-DK 1
OBJECT_ID      = 2006-021A
CENTER_NAME    = EARTH
REF_FRAME      = TEME
TIME_SYSTEM    = UTC
MEAN_ELEMENT_THEORY = SGP/SGP4

EPOCH          = 2026-01-26T06:41:05.843040
MEAN_MOTION    = 15.12465495
ECCENTRICITY   = .0005135
INCLINATION    = 69.9346
RA_OF_ASC_NODE = 346.7068
ARG_OF_PERICENTER = 215.8397
MEAN_ANOMALY   = 144.2425

EPHEMERIS_TYPE = 0
CLASSIFICATION_TYPE = U
NORAD_CAT_ID   = 29228
ELEMENT_SET_NO = 999
REV_AT_EPOCH   = 8111
BSTAR          = .25059E-3
MEAN_MOTION_DOT = .4264E-4
MEAN_MOTION_DDOT = 0

CCSDS_OMM_VERS = 2.0
CREATION_DATE  = 
ORIGINATOR     = 

OBJECT_NAME    = CZ-4B R/B
OBJECT_ID      = 2006-046C
CENTER_NAME    = EARTH
REF_FRAME      = TEME
TIME_SYSTEM    = UTC
MEAN_ELEMENT_THEORY = SGP/SGP4

EPOCH          = 2026-01-26T09:14:01.974912
MEAN_MOTION    = 15.16417195
ECCENTRICITY   = .0034946
INCLINATION    = 97.5678
RA_OF_ASC_NODE = 71.4034
ARG_OF_PERICENTER = 55.8162
MEAN_ANOMALY   = 304.6375

EPHEMERIS_TYPE = 0
CLASSIFICATION_TYPE = U
NORAD_CAT_ID   = 29507
ELEMENT_SET_NO = 999
REV_AT_EPOCH   = 5363
BSTAR          = .37468E-3
MEAN_MOTION_DOT = .7328E-4
MEAN_MOTION_DDOT = 0

CCSDS_OMM_VERS = 2.0
CREATION_DATE  = 
ORIGINATOR     = 

OBJECT_NAME    = CZ-2C R/B
OBJECT_ID      = 2007-010B
CENTER_NAME    = EARTH
REF_FRAME      = TEME
TIME_SYSTEM    = UTC
MEAN_ELEMENT_THEORY = SGP/SGP4

EPOCH          = 2026-01-26T07:33:14.986656
MEAN_MOTION    = 14.20230712
ECCENTRICITY   = .0059924
INCLINATION    = 98.3971
RA_OF_ASC_NODE = 141.7227
ARG_OF_PERICENTER = 58.1117
MEAN_ANOMALY   = 302.5872

EPHEMERIS_TYPE = 0
CLASSIFICATION_TYPE = U
NORAD_CAT_ID   = 31114
ELEMENT_SET_NO = 999
REV_AT_EPOCH   = 97370
BSTAR          = .11888E-3
MEAN_MOTION_DOT = .218E-5
MEAN_MOTION_DDOT = 0

CCSDS_OMM_VERS = 2.0
CREATION_DATE  = 
ORIGINATOR     = 

OBJECT_NAME    = COSMO-SKYMED 1
OBJECT_ID      = 2007-023A
CENTER_NAME    = EARTH
REF_FRAME      = TEME
TIME_SYSTEM    = UTC
MEAN_ELEMENT_THEORY = SGP/SGP4

EPOCH          = 2026-01-26T12:52:17.709312
MEAN_MOTION    = 14.96174380
ECCENTRICITY   = .0001427
INCLINATION    = 97.8852
RA_OF_ASC_NODE = 217.2429
ARG_OF_PERICENTER = 89.2741
MEAN_ANOMALY   = 270.8644

EPHEMERIS_TYPE = 0
CLASSIFICATION_TYPE = U
NORAD_CAT_ID   = 31598
ELEMENT_SET_NO = 999
REV_AT_EPOCH   = 860
BSTAR          = .54734E-3
MEAN_MOTION_DOT = .6109E-4
MEAN_MOTION_DDOT = 0

CCSDS_OMM_VERS = 2.0
CREATION_DATE  = 
ORIGINATOR     = 

OBJECT_NAME    = COSMOS 2428
OBJECT_ID      = 2007-029A
CENTER_NAME    = EARTH
REF_FRAME      = TEME
TIME_SYSTEM    = UTC
MEAN_ELEMENT_THEORY = SGP/SGP4

EPOCH          = 2026-01-26T03:04:37.525440
MEAN_MOTION    = 14.12921143
ECCENTRICITY   = .00063749
INCLINATION    = 70.9402
RA_OF_ASC_NODE = 292.6876
ARG_OF_PERICENTER = 325.2338
MEAN_ANOMALY   = 34.8366

EPHEMERIS_TYPE = 0
CLASSIFICATION_TYPE = U
NORAD_CAT_ID   = 31792
ELEMENT_SET_NO = 999
REV_AT_EPOCH   = 95808
BSTAR          = .26918503E-3
MEAN_MOTION_DOT = .454E-5
MEAN_MOTION_DDOT = 0

CCSDS_OMM_VERS = 2.0
CREATION_DATE  = 
ORIGINATOR     = 

OBJECT_NAME    = SL-16 R/B
OBJECT_ID      = 2007-029B
CENTER_NAME    = EARTH
REF_FRAME      = TEME
TIME_SYSTEM    = UTC
MEAN_ELEMENT_THEORY = SGP/SGP4

EPOCH          = 2026-01-26T01:57:47.626272
MEAN_MOTION    = 14.14822287
ECCENTRICITY   = .0001905
INCLINATION    = 70.9735
RA_OF_ASC_NODE = 261.9498
ARG_OF_PERICENTER = 271.7441
MEAN_ANOMALY   = 196.7265

EPHEMERIS_TYPE = 0
CLASSIFICATION_TYPE = U
NORAD_CAT_ID   = 31793
ELEMENT_SET_NO = 999
REV_AT_EPOCH   = 95934
BSTAR          = .33954E-4
MEAN_MOTION_DOT = .18E-6
MEAN_MOTION_DDOT = 0

CCSDS_OMM_VERS = 2.0
CREATION_DATE  = 
ORIGINATOR     = 

OBJECT_NAME    = KORONAS-FOTON
OBJECT_ID      = 2009-003A
CENTER_NAME    = EARTH
REF_FRAME      = TEME
TIME_SYSTEM    = UTC
MEAN_ELEMENT_THEORY = SGP/SGP4

EPOCH          = 2026-01-26T06:43:43.713120
MEAN_MOTION    = 15.42220269
ECCENTRICITY   = .0009638
INCLINATION    = 82.4326
RA_OF_ASC_NODE = 319.9233
ARG_OF_PERICENTER = 320.0158
MEAN_ANOMALY   = 40.0378

EPHEMERIS_TYPE = 0
CLASSIFICATION_TYPE = U
NORAD_CAT_ID   = 33504
ELEMENT_SET_NO = 999
REV_AT_EPOCH   = 93920
BSTAR          = .34489E-3
MEAN_MOTION_DOT = .14872E-3
MEAN_MOTION_DDOT = 0

CCSDS_OMM_VERS = 2.0
CREATION_DATE  = 
ORIGINATOR     = 

OBJECT_NAME    = CZ-2C R/B
OBJECT_ID      = 2011-030B
CENTER_NAME    = EARTH
REF_FRAME      = TEME
TIME_SYSTEM    = UTC
MEAN_ELEMENT_THEORY = SGP/SGP4

EPOCH          = 2026-01-26T11:11:44.475936
MEAN_MOTION    = 14.81057080
ECCENTRICITY   = .0053883
INCLINATION    = 97.8474
RA_OF_ASC_NODE = 344.6027
ARG_OF_PERICENTER = 126.7582
MEAN_ANOMALY   = 348.1778

EPHEMERIS_TYPE = 0
CLASSIFICATION_TYPE = U
NORAD_CAT_ID   = 37731
ELEMENT_SET_NO = 999
REV_AT_EPOCH   = 78384
BSTAR          = .26996E-3
MEAN_MOTION_DOT = .2093E-4
MEAN_MOTION_DDOT = 0

CCSDS_OMM_VERS = 2.0
CREATION_DATE  = 
ORIGINATOR     = 

OBJECT_NAME    = H-2A R/B
OBJECT_ID      = 2012-025E
CENTER_NAME    = EARTH
REF_FRAME      = TEME
TIME_SYSTEM    = UTC
MEAN_ELEMENT_THEORY = SGP/SGP4

EPOCH          = 2026-01-26T11:52:50.811456
MEAN_MOTION    = 14.94782150
ECCENTRICITY   = .004625
INCLINATION    = 98.4653
RA_OF_ASC_NODE = 350.2016
ARG_OF_PERICENTER = 90.7526
MEAN_ANOMALY   = 269.8992

EPHEMERIS_TYPE = 0
CLASSIFICATION_TYPE = U
NORAD_CAT_ID   = 38341
ELEMENT_SET_NO = 999
REV_AT_EPOCH   = 74191
BSTAR          = .4568E-3
MEAN_MOTION_DOT = .5006E-4
MEAN_MOTION_DDOT = 0

CCSDS_OMM_VERS = 2.0
CREATION_DATE  = 
ORIGINATOR     = 

OBJECT_NAME    = SHIJIAN-16 (SJ-16)
OBJECT_ID      = 2013-057A
CENTER_NAME    = EARTH
REF_FRAME      = TEME
TIME_SYSTEM    = UTC
MEAN_ELEMENT_THEORY = SGP/SGP4

EPOCH          = 2026-01-26T12:37:45.553152
MEAN_MOTION    = 14.92203248
ECCENTRICITY   = .0017466
INCLINATION    = 74.9717
RA_OF_ASC_NODE = 264.9026
ARG_OF_PERICENTER = 216.2851
MEAN_ANOMALY   = 143.7154

EPHEMERIS_TYPE = 0
CLASSIFICATION_TYPE = U
NORAD_CAT_ID   = 39358
ELEMENT_SET_NO = 999
REV_AT_EPOCH   = 66521
BSTAR          = .175E-3
MEAN_MOTION_DOT = .1759E-4
MEAN_MOTION_DDOT = 0

