ALOS (DAICHI)           
1 28931U 06002A   26026.42933456  .00002429  00000+0  41651-3 0  9999
2 28931  98.1151 342.6214 0002173  79.4465 280.6985 14.69657066 67270
H-2A R/B                
1 28932U 06002B   26026.36589313  .00010900  00000+0  55780-3 0  9993
2 28932  98.2339 169.8009 0053791  26.4084 333.9869 15.15553830 88027
RESURS-DK 1             
1 29228U 06021A   26026.27853985  .00004264  00000+0  25059-3 0  9994
2 29228  69.9346 346.7068 0005135 215.8397 144.2425 15.12465495 81110
CZ-4B R/B               
1 29507U 06046C   26026.38474508  .00007328  00000+0  37468-3 0  9994
2 29507  97.5678  71.4034 0034946  55.8162 304.6375 15.16417195 53634
CZ-2C R/B               
1 31114U 07010B   26026.31475679  .00000218  00000+0  11888-3 0  9995
2 31114  98.3971 141.7227 0059924  58.1117 302.5872 14.20230712973700
COSMO-SKYMED 1          
1 31598U 07023A   26026.53631608  .00006109  00000+0  54734-3 0  9997
2 31598  97.8852 217.2429 0001427  89.2741 270.8644 14.96174380  8607
COSMOS 2428             
1 31792U 07029A   26026.12821210  .00000454  00000+0  26919-3 0  9995
2 31792  70.9402 292.6876 0006374 325.2338  34.8366 14.12921143958080
SL-16 R/B               
1 31793U 07029B   26026.08180123  .00000018  00000+0  33954-4 0  9996
2 31793  70.9735 261.9498 0001905 271.7441 196.7265 14.14822287959341
KORONAS-FOTON           
1 33504U 09003A   26026.28036705  .00014872  00000+0  34489-3 0  9996
2 33504  82.4326 319.9233 0009638 320.0158  40.0378 15.42220269939205
CZ-2C R/B               
1 37731U 11030B   26026.46648699  .00002093  00000+0  26996-3 0  9992
2 37731  97.8474 344.6027 0053883 126.7582 348.1778 14.81057080783848
H-2A R/B                
1 38341U 12025E   26026.49503254  .00005006  00000+0  45680-3 0  9993
2 38341  98.4653 350.2016 0046250  90.7526 269.8992 14.94782150741917
SHIJIAN-16 (SJ-16)      
1 39358U 13057A   26026.52622168  .00001759  00000+0  17500-3 0  9999
2 39358  74.9717 264.9026 0017466 216.2851 143.7154 14.92203248665213
